ONEWEB-0037             
1 45440U 20020S   23233.04068119  .00000367  00000+0  10003-2 0  9994
2 45440  87.8896 225.8580 0001832  87.1350 272.9988 13.11418853167557
ONEWEB-0042             
1 45441U 20020T   23233.02372345 -.00000328  00000+0 -95988-3 0  9997
2 45441  87.8891 225.8727 0001760  89.9725 270.1605 13.11420390167524
ONEWEB-0098             
1 45442U 20020U   23232.50873107  .00000632  00000+0  17480-2 0  9998
2 45442  87.8897 225.9858 0002236  93.8633 266.2750 13.11417180167427
ONEWEB-0055             
1 45443U 20020V   23233.48680643 -.00000134  00000+0 -41394-3 0  9999
2 45443  87.8900 225.7954 0002083  90.4513 269.6853 13.11420156167538
ONEWEB-0093             
1 45444U 20020W   23233.53660413 -.00000364  00000+0 -10640-2 0  9993
2 45444  87.8888 225.7736 0002143  98.1255 262.0116 13.11414737167602
ONEWEB-0029             
1 45445U 20020X   23233.02453274  .00026763  00000+0  75018-1 0  9991
2 45445  87.8897 225.8813 0002088  97.6781 262.4584 13.11637867167510
ONEWEB-0068             
1 45446U 20020Y   23233.45289314  .00000008  00000+0 -12576-4 0  9999
2 45446  87.8889 225.7876 0002101  99.1444 260.9922 13.11414419167514
ONEWEB-0046             
1 45447U 20020Z   23233.44971870  .00000192  00000+0  50684-3 0  9998
2 45447  87.8887 225.8004 0001847  86.5275 273.6064 13.11414076167523
